{
  "type": "FeatureCollection",
  "features": [
    {
      "type": "Feature",
      "properties": {
        "norad_id": 36585,
        "name": "GPS BIIF-1  (PRN 25)",
        "group": "gnss",
        "lat": -30.75318772697733,
        "lon": 61.3538767871335,
        "alt_km": 20487.327374484106,
        "timestamp": "2025-12-13T18:50:04.672722+00:00",
        "meta_object_name": "GPS BIIF-1  (PRN 25)",
        "meta_object_id": "2010-022A",
        "meta_epoch": "2025-12-13T05:27:57.415104",
        "meta_mean_motion": 2.00553278,
        "meta_eccentricity": 0.01261295,
        "meta_inclination": 54.3,
        "meta_ra_of_asc_node": 216.0542,
        "meta_arg_of_pericenter": 65.0762,
        "meta_mean_anomaly": 111.1577,
        "meta_ephemeris_type": 0,
        "meta_classification_type": "U",
        "meta_norad_cat_id": 36585,
        "meta_element_set_no": 999,
        "meta_rev_at_epoch": 11386,
        "meta_bstar": 0,
        "meta_mean_motion_dot": 3.5e-07,
        "meta_mean_motion_ddot": 0,
        "tle_line1": "1 36585U 10022A   25347.22774786  .00000035  00000+0  00000+0 0  9992",
        "tle_line2": "2 36585  54.3000 216.0542 0126129  65.0762 111.1577  2.00553278113862"
      },
      "geometry": {
        "type": "Point",
        "coordinates": [
          61.3538767871335,
          -30.75318772697733
        ]
      }
    },
    {
      "type": "Feature",
      "properties": {
        "norad_id": 36828,
        "name": "BEIDOU-2 IGSO-1 (C06)",
        "group": "gnss",
        "lat": -39.050928679423855,
        "lon": 128.87386868795278,
        "alt_km": 35801.100300090686,
        "timestamp": "2025-12-13T18:50:04.672735+00:00",
        "meta_object_name": "BEIDOU-2 IGSO-1 (C06)",
        "meta_object_id": "2010-036A",
        "meta_epoch": "2025-12-12T21:56:21.549120",
        "meta_mean_motion": 1.00276081,
        "meta_eccentricity": 0.00512083,
        "meta_inclination": 54.2861,
        "meta_ra_of_asc_node": 164.6456,
        "meta_arg_of_pericenter": 215.8019,
        "meta_mean_anomaly": 138.385,
        "meta_ephemeris_type": 0,
        "meta_classification_type": "U",
        "meta_norad_cat_id": 36828,
        "meta_element_set_no": 999,
        "meta_rev_at_epoch": 5622,
        "meta_bstar": 0,
        "meta_mean_motion_dot": -3.7e-07,
        "meta_mean_motion_ddot": 0,
        "tle_line1": "1 36828U 10036A   25346.91413830 -.00000037  00000+0  00000+0 0  9995",
        "tle_line2": "2 36828  54.2861 164.6456 0051208 215.8019 138.3850  1.00276081 56227"
      },
      "geometry": {
        "type": "Point",
        "coordinates": [
          128.87386868795278,
          -39.050928679423855
        ]
      }
    },
    {
      "type": "Feature",
      "properties": {
        "norad_id": 37210,
        "name": "BEIDOU-2 G4 (C04)",
        "group": "gnss",
        "lat": 3.1723685531365833,
        "lon": 165.18556685990376,
        "alt_km": 35790.419018615314,
        "timestamp": "2025-12-13T18:50:04.672748+00:00",
        "meta_object_name": "BEIDOU-2 G4 (C04)",
        "meta_object_id": "2010-057A",
        "meta_epoch": "2025-12-13T07:47:51.710784",
        "meta_mean_motion": 1.00271593,
        "meta_eccentricity": 0.00108145,
        "meta_inclination": 3.1864,
        "meta_ra_of_asc_node": 69.9376,
        "meta_arg_of_pericenter": 191.2025,
        "meta_mean_anomaly": 98.158,
        "meta_ephemeris_type": 0,
        "meta_classification_type": "U",
        "meta_norad_cat_id": 37210,
        "meta_element_set_no": 999,
        "meta_rev_at_epoch": 5542,
        "meta_bstar": 0,
        "meta_mean_motion_dot": -9.8e-07,
        "meta_mean_motion_ddot": 0,
        "tle_line1": "1 37210U 10057A   25347.32490406 -.00000098  00000+0  00000+0 0  9991",
        "tle_line2": "2 37210   3.1864  69.9376 0010814 191.2025  98.1580  1.00271593 55426"
      },
      "geometry": {
        "type": "Point",
        "coordinates": [
          165.18556685990376,
          3.1723685531365833
        ]
      }
    },
    {
      "type": "Feature",
      "properties": {
        "norad_id": 37256,
        "name": "BEIDOU-2 IGSO-2 (C07)",
        "group": "gnss",
        "lat": -13.697524014966373,
        "lon": 106.82381148096304,
        "alt_km": 35586.60783030311,
        "timestamp": "2025-12-13T18:50:04.672761+00:00",
        "meta_object_name": "BEIDOU-2 IGSO-2 (C07)",
        "meta_object_id": "2010-068A",
        "meta_epoch": "2025-12-03T17:22:36.027840",
        "meta_mean_motion": 1.0028872,
        "meta_eccentricity": 0.00492449,
        "meta_inclination": 47.9042,
        "meta_ra_of_asc_node": 274.2614,
        "meta_arg_of_pericenter": 216.1411,
        "meta_mean_anomaly": 310.24,
        "meta_ephemeris_type": 0,
        "meta_classification_type": "U",
        "meta_norad_cat_id": 37256,
        "meta_element_set_no": 999,
        "meta_rev_at_epoch": 5483,
        "meta_bstar": 0,
        "meta_mean_motion_dot": -2.25e-06,
        "meta_mean_motion_ddot": 0,
        "tle_line1": "1 37256U 10068A   25337.72402810 -.00000225  00000+0  00000+0 0  9990",
        "tle_line2": "2 37256  47.9042 274.2614 0049244 216.1411 310.2400  1.00288720 54834"
      },
      "geometry": {
        "type": "Point",
        "coordinates": [
          106.82381148096304,
          -13.697524014966373
        ]
      }
    },
    {
      "type": "Feature",
      "properties": {
        "norad_id": 37384,
        "name": "BEIDOU-2 IGSO-3 (C08)",
        "group": "gnss",
        "lat": 56.43389765084822,
        "lon": 94.66679999316648,
        "alt_km": 35848.75287388886,
        "timestamp": "2025-12-13T18:50:04.672775+00:00",
        "meta_object_name": "BEIDOU-2 IGSO-3 (C08)",
        "meta_object_id": "2011-013A",
        "meta_epoch": "2025-12-12T16:08:36.948768",
        "meta_mean_motion": 1.0027095,
        "meta_eccentricity": 0.00354506,
        "meta_inclination": 62.1436,
        "meta_ra_of_asc_node": 41.9157,
        "meta_arg_of_pericenter": 187.5119,
        "meta_mean_anomaly": 201.8968,
        "meta_ephemeris_type": 0,
        "meta_classification_type": "U",
        "meta_norad_cat_id": 37384,
        "meta_element_set_no": 999,
        "meta_rev_at_epoch": 5379,
        "meta_bstar": 0,
        "meta_mean_motion_dot": -1.97e-06,
        "meta_mean_motion_ddot": 0,
        "tle_line1": "1 37384U 11013A   25346.67264987 -.00000197  00000+0  00000+0 0  9996",
        "tle_line2": "2 37384  62.1436  41.9157 0035450 187.5119 201.8968  1.00270950 53797"
      },
      "geometry": {
        "type": "Point",
        "coordinates": [
          94.66679999316648,
          56.43389765084822
        ]
      }
    },
    {
      "type": "Feature",
      "properties": {
        "norad_id": 37605,
        "name": "GSAT-8 (GAGAN/PRN 127)",
        "group": "gnss",
        "lat": -0.647446518842971,
        "lon": 60.35908574215985,
        "alt_km": 35818.847335720544,
        "timestamp": "2025-12-13T18:50:04.672788+00:00",
        "meta_object_name": "GSAT-8 (GAGAN/PRN 127)",
        "meta_object_id": "2011-022A",
        "meta_epoch": "2025-12-13T05:09:04.469184",
        "meta_mean_motion": 1.00271619,
        "meta_eccentricity": 0.00087123,
        "meta_inclination": 1.6512,
        "meta_ra_of_asc_node": 84.1905,
        "meta_arg_of_pericenter": 183.798,
        "meta_mean_anomaly": 306.5095,
        "meta_ephemeris_type": 0,
        "meta_classification_type": "U",
        "meta_norad_cat_id": 37605,
        "meta_element_set_no": 999,
        "meta_rev_at_epoch": 5135,
        "meta_bstar": 0,
        "meta_mean_motion_dot": 9.8e-07,
        "meta_mean_motion_ddot": 0,
        "tle_line1": "1 37605U 11022A   25347.21463506  .00000098  00000+0  00000+0 0  9990",
        "tle_line2": "2 37605   1.6512  84.1905 0008712 183.7980 306.5095  1.00271619 51358"
      },
      "geometry": {
        "type": "Point",
        "coordinates": [
          60.35908574215985,
          -0.647446518842971
        ]
      }
    },
    {
      "type": "Feature",
      "properties": {
        "norad_id": 37763,
        "name": "BEIDOU-2 IGSO-4 (C09)",
        "group": "gnss",
        "lat": -48.14542185099814,
        "lon": 114.64726783286099,
        "alt_km": 35500.98348307024,
        "timestamp": "2025-12-13T18:50:04.672802+00:00",
        "meta_object_name": "BEIDOU-2 IGSO-4 (C09)",
        "meta_object_id": "2011-038A",
        "meta_epoch": "2025-12-10T12:04:03.489024",
        "meta_mean_motion": 1.00284678,
        "meta_eccentricity": 0.01490344,
        "meta_inclination": 54.5829,
        "meta_ra_of_asc_node": 167.3658,
        "meta_arg_of_pericenter": 230.2355,
        "meta_mean_anomaly": 317.2212,
        "meta_ephemeris_type": 0,
        "meta_classification_type": "U",
        "meta_norad_cat_id": 37763,
        "meta_element_set_no": 999,
        "meta_rev_at_epoch": 5275,
        "meta_bstar": 0,
        "meta_mean_motion_dot": 3.6e-07,
        "meta_mean_motion_ddot": 0,
        "tle_line1": "1 37763U 11038A   25344.50281816  .00000036  00000+0  00000+0 0  9995",
        "tle_line2": "2 37763  54.5829 167.3658 0149034 230.2355 317.2212  1.00284678 52751"
      },
      "geometry": {
        "type": "Point",
        "coordinates": [
          114.64726783286099,
          -48.14542185099814
        ]
      }
    }
  ]
}